{"type": "FeatureCollection", "features": [ {"type": "Feature", "properties": {"norad_id": 40701, "name": "GAOFEN-8", "group": "resource", "lat": 82.30114246347937, "lon": 87.46503138214237, "alt_km": 433.66226637780983, "timestamp": "2025-12-26T07:29:18.116935+00:00", "meta": {"OBJECT_NAME": "GAOFEN-8", "OBJECT_ID": "2015-030A", "EPOCH": "2025-12-25T23:17:46.487616", "MEAN_MOTION": 15.39026705, "ECCENTRICITY": 0.00114721, "INCLINATION": 97.6903, "RA_OF_ASC_NODE": 178.7606, "ARG_OF_PERICENTER": 92.8832, "MEAN_ANOMALY": 267.3726, "EPHEMERIS_TYPE": 0, "CLASSIFICATION_TYPE": "U", "NORAD_CAT_ID": 40701, "ELEMENT_SET_NO": 999, "REV_AT_EPOCH": 58474, "BSTAR": 0.00030288987, "MEAN_MOTION_DOT": 0.00011647, "MEAN_MOTION_DDOT": 0}, "tle": {"line1": "1 40701U 15030A   25359.97067694  .00011647  00000+0  30289-3 0  9996", "line2": "2 40701  97.6903 178.7606 0011472  92.8832 267.3726 15.39026705584749"}}, "geometry": {"type": "Point", "coordinates": [87.46503138214237, 82.30114246347937]}}, {"type": "Feature", "properties": {"norad_id": 40718, "name": "CARBONITE 1 (CBNT-1)", "group": "resource", "lat": 10.18029668875512, "lon": 2.140696490804807, "alt_km": 612.9224198345737, "timestamp": "2025-12-26T07:29:18.116944+00:00", "meta": {"OBJECT_NAME": "CARBONITE 1 (CBNT-1)", "OBJECT_ID": "2015-032D", "EPOCH": "2025-12-25T22:37:44.839776", "MEAN_MOTION": 14.82810422, "ECCENTRICITY": 0.00154027, "INCLINATION": 97.6406, "RA_OF_ASC_NODE": 180.4066, "ARG_OF_PERICENTER": 138.7861, "MEAN_ANOMALY": 221.452, "EPHEMERIS_TYPE": 0, "CLASSIFICATION_TYPE": "U", "NORAD_CAT_ID": 40718, "ELEMENT_SET_NO": 999, "REV_AT_EPOCH": 56366, "BSTAR": 0.00067441611, "MEAN_MOTION_DOT": 5.419e-05, "MEAN_MOTION_DDOT": 0}, "tle": {"line1": "1 40718U 15032D   25359.94288009  .00005419  00000+0  67442-3 0  9999", "line2": "2 40718  97.6406 180.4066 0015402 138.7861 221.4520 14.82810422563669"}}, "geometry": {"type": "Point", "coordinates": [2.140696490804807, 10.18029668875512]}}, {"type": "Feature", "properties": {"norad_id": 40878, "name": "YAOGAN-27", "group": "resource", "lat": 15.016051368067677, "lon": -13.422810503213503, "alt_km": 1203.4674020289503, "timestamp": "2025-12-26T07:29:18.116955+00:00", "meta": {"OBJECT_NAME": "YAOGAN-27", "OBJECT_ID": "2015-040A", "EPOCH": "2025-12-26T00:06:46.704672", "MEAN_MOTION": 13.16061396, "ECCENTRICITY": 0.00075893, "INCLINATION": 100.1024, "RA_OF_ASC_NODE": 349.0248, "ARG_OF_PERICENTER": 253.7313, "MEAN_ANOMALY": 106.2967, "EPHEMERIS_TYPE": 0, "CLASSIFICATION_TYPE": "U", "NORAD_CAT_ID": 40878, "ELEMENT_SET_NO": 999, "REV_AT_EPOCH": 49488, "BSTAR": -0.0003004632, "MEAN_MOTION_DOT": -1.56e-06, "MEAN_MOTION_DDOT": 0}, "tle": {"line1": "1 40878U 15040A   25360.00470723 -.00000156  00000+0 -30046-3 0  9995", "line2": "2 40878 100.1024 349.0248 0007589 253.7313 106.2967 13.16061396494880"}}, "geometry": {"type": "Point", "coordinates": [-13.422810503213503, 15.016051368067677]}}, {"type": "Feature", "properties": {"norad_id": 40894, "name": "GAOFEN-9 01", "group": "resource", "lat": 72.47795960275533, "lon": 13.475225840574263, "alt_km": 612.5557616081423, "timestamp": "2025-12-26T07:29:18.116966+00:00", "meta": {"OBJECT_NAME": "GAOFEN-9 01", "OBJECT_ID": "2015-047A", "EPOCH": "2025-12-25T23:03:23.235840", "MEAN_MOTION": 14.82453662, "ECCENTRICITY": 0.00273109, "INCLINATION": 97.6526, "RA_OF_ASC_NODE": 38.3443, "ARG_OF_PERICENTER": 351.4414, "MEAN_ANOMALY": 8.6331, "EPHEMERIS_TYPE": 0, "CLASSIFICATION_TYPE": "U", "NORAD_CAT_ID": 40894, "ELEMENT_SET_NO": 999, "REV_AT_EPOCH": 55452, "BSTAR": 0.00014621395, "MEAN_MOTION_DOT": 1.129e-05, "MEAN_MOTION_DDOT": 0}, "tle": {"line1": "1 40894U 15047A   25359.96068560  .00001129  00000+0  14621-3 0  9995", "line2": "2 40894  97.6526  38.3443 0027310 351.4414   8.6331 14.82453662554525"}}, "geometry": {"type": "Point", "coordinates": [13.475225840574263, 72.47795960275533]}}, {"type": "Feature", "properties": {"norad_id": 41026, "name": "YAOGAN-28", "group": "resource", "lat": 63.863886691997706, "lon": -27.17163641385225, "alt_km": 478.5323281962619, "timestamp": "2025-12-26T07:29:18.116976+00:00", "meta": {"OBJECT_NAME": "YAOGAN-28", "OBJECT_ID": "2015-064A", "EPOCH": "2025-12-25T23:06:35.901792", "MEAN_MOTION": 15.24560535, "ECCENTRICITY": 0.0012656, "INCLINATION": 97.2816, "RA_OF_ASC_NODE": 137.3839, "ARG_OF_PERICENTER": 84.141, "MEAN_ANOMALY": 276.1271, "EPHEMERIS_TYPE": 0, "CLASSIFICATION_TYPE": "U", "NORAD_CAT_ID": 41026, "ELEMENT_SET_NO": 999, "REV_AT_EPOCH": 56426, "BSTAR": 0.00031596641, "MEAN_MOTION_DOT": 7.73e-05, "MEAN_MOTION_DDOT": 0}, "tle": {"line1": "1 41026U 15064A   25359.96291553  .00007730  00000+0  31597-3 0  9997", "line2": "2 41026  97.2816 137.3839 0012656  84.1410 276.1271 15.24560535564265"}}, "geometry": {"type": "Point", "coordinates": [-27.17163641385225, 63.863886691997706]}}, {"type": "Feature", "properties": {"norad_id": 41038, "name": "YAOGAN-29", "group": "resource", "lat": -15.785354001493934, "lon": 25.810520397092866, "alt_km": 625.677296167325, "timestamp": "2025-12-26T07:29:18.116985+00:00", "meta": {"OBJECT_NAME": "YAOGAN-29", "OBJECT_ID": "2015-069A", "EPOCH": "2025-12-25T23:27:46.533024", "MEAN_MOTION": 14.82898064, "ECCENTRICITY": 9.501e-05, "INCLINATION": 98.0207, "RA_OF_ASC_NODE": 23.1906, "ARG_OF_PERICENTER": 160.8024, "MEAN_ANOMALY": 199.3225, "EPHEMERIS_TYPE": 0, "CLASSIFICATION_TYPE": "U", "NORAD_CAT_ID": 41038, "ELEMENT_SET_NO": 999, "REV_AT_EPOCH": 54495, "BSTAR": 0.00010692642, "MEAN_MOTION_DOT": 8.13e-06, "MEAN_MOTION_DDOT": 0}, "tle": {"line1": "1 41038U 15069A   25359.97762191  .00000813  00000+0  10693-3 0  9996", "line2": "2 41038  98.0207  23.1906 0000950 160.8024 199.3225 14.82898064544958"}}, "geometry": {"type": "Point", "coordinates": [25.810520397092866, -15.785354001493934]}}, {"type": "Feature", "properties": {"norad_id": 41167, "name": "KENT RIDGE 1", "group": "resource", "lat": -4.458626510121033, "lon": -52.61571492998251, "alt_km": 501.74616240930754, "timestamp": "2025-12-26T07:29:18.116995+00:00", "meta": {"OBJECT_NAME": "KENT RIDGE 1", "OBJECT_ID": "2015-077B", "EPOCH": "2025-12-25T16:28:00.882048", "MEAN_MOTION": 15.21731933, "ECCENTRICITY": 0.00085371, "INCLINATION": 14.9792, "RA_OF_ASC_NODE": 115.0675, "ARG_OF_PERICENTER": 313.4673, "MEAN_ANOMALY": 46.4939, "EPHEMERIS_TYPE": 0, "CLASSIFICATION_TYPE": "U", "NORAD_CAT_ID": 41167, "ELEMENT_SET_NO": 999, "REV_AT_EPOCH": 55461, "BSTAR": 0.00017413045, "MEAN_MOTION_DOT": 4.822e-05, "MEAN_MOTION_DDOT": 0}, "tle": {"line1": "1 41167U 15077B   25359.68612132  .00004822  00000+0  17413-3 0  9996", "line2": "2 41167  14.9792 115.0675 0008537 313.4673  46.4939 15.21731933554619"}}, "geometry": {"type": "Point", "coordinates": [-52.61571492998251, -4.458626510121033]}}, {"type": "Feature", "properties": {"norad_id": 41194, "name": "GAOFEN-4", "group": "resource", "lat": -0.17367915885742885, "lon": -46.897217327481215, "alt_km": 35795.50539240096, "timestamp": "2025-12-26T07:29:18.117008+00:00", "meta": {"OBJECT_NAME": "GAOFEN-4", "OBJECT_ID": "2015-083A", "EPOCH": "2025-12-25T18:48:31.585824", "MEAN_MOTION": 1.00269663, "ECCENTRICITY": 0.00028192, "INCLINATION": 0.2017, "RA_OF_ASC_NODE": 81.9193, "ARG_OF_PERICENTER": 93.7327, "MEAN_ANOMALY": 306.7256, "EPHEMERIS_TYPE": 0, "CLASSIFICATION_TYPE": "U", "NORAD_CAT_ID": 41194, "ELEMENT_SET_NO": 999, "REV_AT_EPOCH": 3679, "BSTAR": 0, "MEAN_MOTION_DOT": -3.13e-06, "MEAN_MOTION_DDOT": 0}, "tle": {"line1": "1 41194U 15083A   25359.78369891 -.00000313  00000+0  00000+0 0  9997", "line2": "2 41194   0.2017  81.9193 0002819  93.7327 306.7256  1.00269663 36790"}}, "geometry": {"type": "Point", "coordinates": [-46.897217327481215, -0.17367915885742885]}}, {"type": "Feature", "properties": {"norad_id": 41240, "name": "JASON-3", "group": "resource", "lat": -35.08132437169736, "lon": -32.51359613793922, "alt_km": 1312.804461648615, "timestamp": "2025-12-26T07:29:18.117019+00:00", "meta": {"OBJECT_NAME": "JASON-3", "OBJECT_ID": "2016-002A", "EPOCH": "2025-12-25T22:53:54.177792", "MEAN_MOTION": 12.87627113, "ECCENTRICITY": 0.00073166, "INCLINATION": 66.0406, "RA_OF_ASC_NODE": 130.0424, "ARG_OF_PERICENTER": 271.6095, "MEAN_ANOMALY": 88.4086, "EPHEMERIS_TYPE": 0, "CLASSIFICATION_TYPE": "U", "NORAD_CAT_ID": 41240, "ELEMENT_SET_NO": 999, "REV_AT_EPOCH": 46494, "BSTAR": 0.00015300658, "MEAN_MOTION_DOT": -2.4e-07, "MEAN_MOTION_DDOT": 0}, "tle": {"line1": "1 41240U 16002A   25359.95409928 -.00000024  00000+0  15301-3 0  9999", "line2": "2 41240  66.0406 130.0424 0007316 271.6095  88.4086 12.87627113464945"}}, "geometry": {"type": "Point", "coordinates": [-32.51359613793922, -35.08132437169736]}}, {"type": "Feature", "properties": {"norad_id": 41335, "name": "SENTINEL-3A", "group": "resource", "lat": -4.110238081056616, "lon": -115.49026307111261, "alt_km": 806.0831216846636, "timestamp": "2025-12-26T07:29:18.117029+00:00", "meta": {"OBJECT_NAME": "SENTINEL-3A", "OBJECT_ID": "2016-011A", "EPOCH": "2025-12-25T22:12:46.725120", "MEAN_MOTION": 14.26735659, "ECCENTRICITY": 8.85e-05, "INCLINATION": 98.6297, "RA_OF_ASC_NODE": 64.754, "ARG_OF_PERICENTER": 97.5212, "MEAN_ANOMALY": 262.6069, "EPHEMERIS_TYPE": 0, "CLASSIFICATION_TYPE": "U", "NORAD_CAT_ID": 41335, "ELEMENT_SET_NO": 999, "REV_AT_EPOCH": 51335, "BSTAR": 7.3732955e-05, "MEAN_MOTION_DOT": 1.35e-06, "MEAN_MOTION_DDOT": 0}, "tle": {"line1": "1 41335U 16011A   25359.92554080  .00000135  00000+0  73733-4 0  9997", "line2": "2 41335  98.6297  64.7540 0000885  97.5212 262.6069 14.26735659513358"}}, "geometry": {"type": "Point", "coordinates": [-115.49026307111261, -4.110238081056616]}}]}